{"fetched_at":"2026-07-15T17:47:13.894Z","source":"https://celestrak.org/NORAD/elements/gp.php?NAME=HULIANWANG&FORMAT=JSON","constellation":"guowang","records":[{"OBJECT_NAME":"HULIANWANG DIGUI-92","OBJECT_ID":"2025-231F","EPOCH":"2026-07-15T00:33:29.557728","CLASSIFICATION_TYPE":"U","MEAN_MOTION":13.29328941,"ECCENTRICITY":0.0000555,"INCLINATION":50.0058,"RA_OF_ASC_NODE":75.8194,"ARG_OF_PERICENTER":339.9386,"MEAN_ANOMALY":20.1464,"EPHEMERIS_TYPE":0,"NORAD_CAT_ID":66000,"ELEMENT_SET_NO":999,"REV_AT_EPOCH":3659,"BSTAR":0.000062397,"MEAN_MOTION_DOT":-9.5e-7,"MEAN_MOTION_DDOT":0},{"OBJECT_NAME":"HULIANWANG DIGUI-93","OBJECT_ID":"2025-231G","EPOCH":"2026-07-15T01:57:38.707200","CLASSIFICATION_TYPE":"U","MEAN_MOTION":13.29328039,"ECCENTRICITY":0.0000535,"INCLINATION":50.0025,"RA_OF_ASC_NODE":75.3975,"ARG_OF_PERICENTER":335.3201,"MEAN_ANOMALY":24.7645,"EPHEMERIS_TYPE":0,"NORAD_CAT_ID":66001,"ELEMENT_SET_NO":999,"REV_AT_EPOCH":3660,"BSTAR":0.000058306,"MEAN_MOTION_DOT":-9.7e-7,"MEAN_MOTION_DDOT":0},{"OBJECT_NAME":"HULIANWANG DIGUI-94","OBJECT_ID":"2025-231H","EPOCH":"2026-07-15T02:09:53.780256","CLASSIFICATION_TYPE":"U","MEAN_MOTION":13.29325978,"ECCENTRICITY":0.0000567,"INCLINATION":50.0064,"RA_OF_ASC_NODE":75.5243,"ARG_OF_PERICENTER":336.6175,"MEAN_ANOMALY":23.4671,"EPHEMERIS_TYPE":0,"NORAD_CAT_ID":66002,"ELEMENT_SET_NO":999,"REV_AT_EPOCH":3660,"BSTAR":0.000061077,"MEAN_MOTION_DOT":-9.6e-7,"MEAN_MOTION_DDOT":0},{"OBJECT_NAME":"HULIANWANG DIGUI-95","OBJECT_ID":"2025-231J","EPOCH":"2026-07-14T22:09:10.103040","CLASSIFICATION_TYPE":"U","MEAN_MOTION":13.29332469,"ECCENTRICITY":0.0000526,"INCLINATION":50.004,"RA_OF_ASC_NODE":75.9192,"ARG_OF_PERICENTER":341.4884,"MEAN_ANOMALY":18.5969,"EPHEMERIS_TYPE":0,"NORAD_CAT_ID":66003,"ELEMENT_SET_NO":999,"REV_AT_EPOCH":3658,"BSTAR":0.000049168,"MEAN_MOTION_DOT":-0.00000101,"MEAN_MOTION_DDOT":0},{"OBJECT_NAME":"HULIANWANG DIGUI-96","OBJECT_ID":"2025-258A","EPOCH":"2026-07-15T04:08:04.515072","CLASSIFICATION_TYPE":"U","MEAN_MOTION":13.29327273,"ECCENTRICITY":0.0000875,"INCLINATION":50.0022,"RA_OF_ASC_NODE":195.2688,"ARG_OF_PERICENTER":249.3892,"MEAN_ANOMALY":110.6886,"EPHEMERIS_TYPE":0,"NORAD_CAT_ID":66412,"ELEMENT_SET_NO":999,"REV_AT_EPOCH":3345,"BSTAR":0.000014697,"MEAN_MOTION_DOT":-0.00000117,"MEAN_MOTION_DDOT":0},{"OBJECT_NAME":"HULIANWANG DIGUI-97","OBJECT_ID":"2025-258B","EPOCH":"2026-07-14T23:31:21.140256","CLASSIFICATION_TYPE":"U","MEAN_MOTION":13.29326691,"ECCENTRICITY":0.000103,"INCLINATION":49.9985,"RA_OF_ASC_NODE":196.1828,"ARG_OF_PERICENTER":248.8871,"MEAN_ANOMALY":111.1891,"EPHEMERIS_TYPE":0,"NORAD_CAT_ID":66413,"ELEMENT_SET_NO":999,"REV_AT_EPOCH":3342,"BSTAR":0.000028752,"MEAN_MOTION_DOT":-0.00000111,"MEAN_MOTION_DDOT":0},{"OBJECT_NAME":"HULIANWANG DIGUI-98","OBJECT_ID":"2025-258C","EPOCH":"2026-07-15T01:07:47.387136","CLASSIFICATION_TYPE":"U","MEAN_MOTION":13.29323229,"ECCENTRICITY":0.000112,"INCLINATION":50.002,"RA_OF_ASC_NODE":195.9481,"ARG_OF_PERICENTER":244.7748,"MEAN_ANOMALY":115.3008,"EPHEMERIS_TYPE":0,"NORAD_CAT_ID":66414,"ELEMENT_SET_NO":999,"REV_AT_EPOCH":3343,"BSTAR":0.000039079,"MEAN_MOTION_DOT":-0.00000106,"MEAN_MOTION_DDOT":0},{"OBJECT_NAME":"HULIANWANG DIGUI-99","OBJECT_ID":"2025-258D","EPOCH":"2026-07-15T03:56:05.311968","CLASSIFICATION_TYPE":"U","MEAN_MOTION":13.29326515,"ECCENTRICITY":0.0000986,"INCLINATION":50.0022,"RA_OF_ASC_NODE":195.2278,"ARG_OF_PERICENTER":252.4552,"MEAN_ANOMALY":107.6212,"EPHEMERIS_TYPE":0,"NORAD_CAT_ID":66415,"ELEMENT_SET_NO":999,"REV_AT_EPOCH":3344,"BSTAR":0.000010892,"MEAN_MOTION_DOT":-0.00000119,"MEAN_MOTION_DDOT":0},{"OBJECT_NAME":"HULIANWANG DIGUI-100","OBJECT_ID":"2025-258E","EPOCH":"2026-07-15T00:55:44.843808","CLASSIFICATION_TYPE":"U","MEAN_MOTION":13.29323305,"ECCENTRICITY":0.0001018,"INCLINATION":50.0026,"RA_OF_ASC_NODE":195.9095,"ARG_OF_PERICENTER":255.1913,"MEAN_ANOMALY":104.8847,"EPHEMERIS_TYPE":0,"NORAD_CAT_ID":66416,"ELEMENT_SET_NO":999,"REV_AT_EPOCH":3344,"BSTAR":0.000033623,"MEAN_MOTION_DOT":-0.00000108,"MEAN_MOTION_DDOT":0},{"OBJECT_NAME":"HULIANWANG DIGUI-101","OBJECT_ID":"2025-258F","EPOCH":"2026-07-15T04:19:58.472832","CLASSIFICATION_TYPE":"U","MEAN_MOTION":13.29327133,"ECCENTRICITY":0.0000832,"INCLINATION":49.9974,"RA_OF_ASC_NODE":195.2182,"ARG_OF_PERICENTER":252.2599,"MEAN_ANOMALY":107.8183,"EPHEMERIS_TYPE":0,"NORAD_CAT_ID":66417,"ELEMENT_SET_NO":999,"REV_AT_EPOCH":3346,"BSTAR":0.0000091412,"MEAN_MOTION_DOT":-0.0000012,"MEAN_MOTION_DDOT":0},{"OBJECT_NAME":"HULIANWANG DIGUI-102","OBJECT_ID":"2025-258G","EPOCH":"2026-07-15T03:44:05.019360","CLASSIFICATION_TYPE":"U","MEAN_MOTION":13.29323148,"ECCENTRICITY":0.0000872,"INCLINATION":49.9989,"RA_OF_ASC_NODE":195.113,"ARG_OF_PERICENTER":250.1062,"MEAN_ANOMALY":109.9716,"EPHEMERIS_TYPE":0,"NORAD_CAT_ID":66418,"ELEMENT_SET_NO":999,"REV_AT_EPOCH":3345,"BSTAR":0.00001157,"MEAN_MOTION_DOT":-0.00000119,"MEAN_MOTION_DDOT":0},{"OBJECT_NAME":"HULIANWANG DIGUI-103","OBJECT_ID":"2025-258H","EPOCH":"2026-07-14T23:55:21.309024","CLASSIFICATION_TYPE":"U","MEAN_MOTION":13.29326225,"ECCENTRICITY":0.0000971,"INCLINATION":49.9981,"RA_OF_ASC_NODE":195.5935,"ARG_OF_PERICENTER":259.9113,"MEAN_ANOMALY":100.1649,"EPHEMERIS_TYPE":0,"NORAD_CAT_ID":66419,"ELEMENT_SET_NO":999,"REV_AT_EPOCH":3343,"BSTAR":0.000021378,"MEAN_MOTION_DOT":-0.00000114,"MEAN_MOTION_DDOT":0},{"OBJECT_NAME":"HULIANWANG DIGUI-104","OBJECT_ID":"2025-258J","EPOCH":"2026-07-14T23:43:23.216160","CLASSIFICATION_TYPE":"U","MEAN_MOTION":13.29326252,"ECCENTRICITY":0.0000943,"INCLINATION":50.0002,"RA_OF_ASC_NODE":195.5899,"ARG_OF_PERICENTER":246.9176,"MEAN_ANOMALY":113.1596,"EPHEMERIS_TYPE":0,"NORAD_CAT_ID":66420,"ELEMENT_SET_NO":999,"REV_AT_EPOCH":3342,"BSTAR":0.000011126,"MEAN_MOTION_DOT":-0.00000119,"MEAN_MOTION_DDOT":0},{"OBJECT_NAME":"HULIANWANG DIGUI-105","OBJECT_ID":"2025-285A","EPOCH":"2026-07-14T22:00:59.944608","CLASSIFICATION_TYPE":"U","MEAN_MOTION":13.29322673,"ECCENTRICITY":0.0000972,"INCLINATION":50.0057,"RA_OF_ASC_NODE":46.7681,"ARG_OF_PERICENTER":33.3146,"MEAN_ANOMALY":326.7787,"EPHEMERIS_TYPE":0,"NORAD_CAT_ID":66915,"ELEMENT_SET_NO":999,"REV_AT_EPOCH":2974,"BSTAR":0.000035703,"MEAN_MOTION_DOT":-0.00000107,"MEAN_MOTION_DDOT":0},{"OBJECT_NAME":"HULIANWANG DIGUI-106","OBJECT_ID":"2025-285B","EPOCH":"2026-07-14T21:48:54.326304","CLASSIFICATION_TYPE":"U","MEAN_MOTION":13.29323067,"ECCENTRICITY":0.0000994,"INCLINATION":50.007,"RA_OF_ASC_NODE":46.7449,"ARG_OF_PERICENTER":31.8781,"MEAN_ANOMALY":328.2151,"EPHEMERIS_TYPE":0,"NORAD_CAT_ID":66916,"ELEMENT_SET_NO":999,"REV_AT_EPOCH":2974,"BSTAR":0.000038954,"MEAN_MOTION_DOT":-0.00000106,"MEAN_MOTION_DDOT":0},{"OBJECT_NAME":"HULIANWANG DIGUI-107","OBJECT_ID":"2025-285C","EPOCH":"2026-07-14T21:36:40.826592","CLASSIFICATION_TYPE":"U","MEAN_MOTION":13.29325959,"ECCENTRICITY":0.0000973,"INCLINATION":50.0034,"RA_OF_ASC_NODE":46.6391,"ARG_OF_PERICENTER":36.7489,"MEAN_ANOMALY":323.3449,"EPHEMERIS_TYPE":0,"NORAD_CAT_ID":66917,"ELEMENT_SET_NO":999,"REV_AT_EPOCH":2974,"BSTAR":0.000030191,"MEAN_MOTION_DOT":-0.0000011,"MEAN_MOTION_DDOT":0}]}
