HULIANWANG DIGUI-92     
1 66000U 25231F   26196.02325877 -.00000095  00000+0  62397-4 0  9998
2 66000  50.0058  75.8194 0000555 339.9386  20.1464 13.29328941 36594
HULIANWANG DIGUI-93     
1 66001U 25231G   26196.08169800 -.00000097  00000+0  58306-4 0  9994
2 66001  50.0025  75.3975 0000535 335.3201  24.7645 13.29328039 36606
HULIANWANG DIGUI-94     
1 66002U 25231H   26196.09020579 -.00000096  00000+0  61077-4 0  9993
2 66002  50.0064  75.5243 0000567 336.6175  23.4671 13.29325978 36603
HULIANWANG DIGUI-95     
1 66003U 25231J   26195.92303360 -.00000101  00000+0  49168-4 0  9991
2 66003  50.0040  75.9192 0000526 341.4884  18.5969 13.29332469 36586
HULIANWANG DIGUI-96     
1 66412U 25258A   26196.17227448 -.00000117  00000+0  14697-4 0  9990
2 66412  50.0022 195.2688 0000875 249.3892 110.6886 13.29327273 33450
HULIANWANG DIGUI-97     
1 66413U 25258B   26195.98010579 -.00000111  00000+0  28752-4 0  9995
2 66413  49.9985 196.1828 0001030 248.8871 111.1891 13.29326691 33429
HULIANWANG DIGUI-98     
1 66414U 25258C   26196.04707624 -.00000106  00000+0  39079-4 0  9996
2 66414  50.0020 195.9481 0001120 244.7748 115.3008 13.29323229 33434
HULIANWANG DIGUI-99     
1 66415U 25258D   26196.16395037 -.00000119  00000+0  10892-4 0  9997
2 66415  50.0022 195.2278 0000986 252.4552 107.6212 13.29326515 33445
HULIANWANG DIGUI-100    
1 66416U 25258E   26196.03871347 -.00000108  00000+0  33623-4 0  9992
2 66416  50.0026 195.9095 0001018 255.1913 104.8847 13.29323305 33449
HULIANWANG DIGUI-101    
1 66417U 25258F   26196.18053788 -.00000120  00000+0  91412-5 0  9995
2 66417  49.9974 195.2182 0000832 252.2599 107.8183 13.29327133 33461
HULIANWANG DIGUI-102    
1 66418U 25258G   26196.15561365 -.00000119  00000+0  11570-4 0  9992
2 66418  49.9989 195.1130 0000872 250.1062 109.9716 13.29323148 33452
HULIANWANG DIGUI-103    
1 66419U 25258H   26195.99677441 -.00000114  00000+0  21378-4 0  9999
2 66419  49.9981 195.5935 0000971 259.9113 100.1649 13.29326225 33431
HULIANWANG DIGUI-104    
1 66420U 25258J   26195.98846315 -.00000119  00000+0  11126-4 0  9993
2 66420  50.0002 195.5899 0000943 246.9176 113.1596 13.29326252 33427
HULIANWANG DIGUI-105    
1 66915U 25285A   26195.91736047 -.00000107  00000+0  35703-4 0  9999
2 66915  50.0057  46.7681 0000972  33.3146 326.7787 13.29322673 29746
HULIANWANG DIGUI-106    
1 66916U 25285B   26195.90896211 -.00000106  00000+0  38954-4 0  9999
2 66916  50.0070  46.7449 0000994  31.8781 328.2151 13.29323067 29746
HULIANWANG DIGUI-107    
1 66917U 25285C   26195.90047253 -.00000110  00000+0  30191-4 0  9994
2 66917  50.0034  46.6391 0000973  36.7489 323.3449 13.29325959 29746
